[
  {
    "COMMENT": "GENERATED VIA SPACETRACK.ORG API",
    "ORIGINATOR": "18 SPCS",
    "NORAD_CAT_ID": "36508",
    "OBJECT_NAME": "CRYOSAT 2",
    "OBJECT_TYPE": "PAYLOAD",
    "CLASSIFICATION_TYPE": "U",
    "INTLDES": "10013A",
    "EPOCH": "2023-06-15 17:41:38",
    "EPOCH_MICROSECONDS": "131296",
    "MEAN_MOTION": "14.51904412",
    "ECCENTRICITY": "0.0006309",
    "INCLINATION": "92.0198",
    "RA_OF_ASC_NODE": "12.0491",
    "ARG_OF_PERICENTER": "91.6317",
    "MEAN_ANOMALY": "268.5613",
    "EPHEMERIS_TYPE": "0",
    "ELEMENT_SET_NO": "999",
    "REV_AT_EPOCH": "69884",
    "BSTAR": "0.000062396",
    "MEAN_MOTION_DOT": "0.00000254",
    "MEAN_MOTION_DDOT": "0",
    "FILE": "3934071",
    "TLE_LINE0": "0 CRYOSAT 2",
    "TLE_LINE1": "1 36508U 10013A   23166.73724689  .00000254  00000-0  62396-4 0  9992",
    "TLE_LINE2": "2 36508  92.0198  12.0491 0006309  91.6317 268.5613 14.51904412698842",
    "OBJECT_ID": "2010-013A",
    "OBJECT_NUMBER": "36508",
    "SEMIMAJOR_AXIS": "7097.572",
    "PERIOD": "99.180",
    "APOGEE": "723.915",
    "PERIGEE": "714.959",
    "DECAYED": "0"
  },
  {
    "COMMENT": "GENERATED VIA SPACETRACK.ORG API",
    "ORIGINATOR": "18 SPCS",
    "NORAD_CAT_ID": "36508",
    "OBJECT_NAME": "CRYOSAT 2",
    "OBJECT_TYPE": "PAYLOAD",
    "CLASSIFICATION_TYPE": "U",
    "INTLDES": "10013A",
    "EPOCH": "2023-06-16 13:32:34",
    "EPOCH_MICROSECONDS": "287072",
    "MEAN_MOTION": "14.51905117",
    "ECCENTRICITY": "0.0006313",
    "INCLINATION": "92.0197",
    "RA_OF_ASC_NODE": "12.2485",
    "ARG_OF_PERICENTER": "89.9936",
    "MEAN_ANOMALY": "270.1995",
    "EPHEMERIS_TYPE": "0",
    "ELEMENT_SET_NO": "999",
    "REV_AT_EPOCH": "69896",
    "BSTAR": "0.00006952",
    "MEAN_MOTION_DOT": "0.00000283",
    "MEAN_MOTION_DDOT": "0",
    "FILE": "3934686",
    "TLE_LINE0": "0 CRYOSAT 2",
    "TLE_LINE1": "1 36508U 10013A   23167.56428573  .00000283  00000-0  69520-4 0  9995",
    "TLE_LINE2": "2 36508  92.0197  12.2485 0006313  89.9936 270.1995 14.51905117698966",
    "OBJECT_ID": "2010-013A",
    "OBJECT_NUMBER": "36508",
    "SEMIMAJOR_AXIS": "7097.570",
    "PERIOD": "99.180",
    "APOGEE": "723.916",
    "PERIGEE": "714.954",
    "DECAYED": "0"
  },
  {
    "COMMENT": "GENERATED VIA SPACETRACK.ORG API",
    "ORIGINATOR": "18 SPCS",
    "NORAD_CAT_ID": "36508",
    "OBJECT_NAME": "CRYOSAT 2",
    "OBJECT_TYPE": "PAYLOAD",
    "CLASSIFICATION_TYPE": "U",
    "INTLDES": "10013A",
    "EPOCH": "2023-06-16 20:09:33",
    "EPOCH_MICROSECONDS": "7968",
    "MEAN_MOTION": "14.51905127",
    "ECCENTRICITY": "0.0006314",
    "INCLINATION": "92.0197",
    "RA_OF_ASC_NODE": "12.3149",
    "ARG_OF_PERICENTER": "89.4658",
    "MEAN_ANOMALY": "270.7272",
    "EPHEMERIS_TYPE": "0",
    "ELEMENT_SET_NO": "999",
    "REV_AT_EPOCH": "69900",
    "BSTAR": "0.000061826",
    "MEAN_MOTION_DOT": "0.00000252",
    "MEAN_MOTION_DDOT": "0",
    "FILE": "3934949",
    "TLE_LINE0": "0 CRYOSAT 2",
    "TLE_LINE1": "1 36508U 10013A   23167.83996537  .00000252  00000-0  61826-4 0  9992",
    "TLE_LINE2": "2 36508  92.0197  12.3149 0006314  89.4658 270.7272 14.51905127699002",
    "OBJECT_ID": "2010-013A",
    "OBJECT_NUMBER": "36508",
    "SEMIMAJOR_AXIS": "7097.570",
    "PERIOD": "99.180",
    "APOGEE": "723.916",
    "PERIGEE": "714.954",
    "DECAYED": "0"
  },
  {
    "COMMENT": "GENERATED VIA SPACETRACK.ORG API",
    "ORIGINATOR": "18 SPCS",
    "NORAD_CAT_ID": "36508",
    "OBJECT_NAME": "CRYOSAT 2",
    "OBJECT_TYPE": "PAYLOAD",
    "CLASSIFICATION_TYPE": "U",
    "INTLDES": "10013A",
    "EPOCH": "2023-06-17 01:07:17",
    "EPOCH_MICROSECONDS": "43456",
    "MEAN_MOTION": "14.5190525",
    "ECCENTRICITY": "0.0006314",
    "INCLINATION": "92.0196",
    "RA_OF_ASC_NODE": "12.3647",
    "ARG_OF_PERICENTER": "89.0843",
    "MEAN_ANOMALY": "271.1088",
    "EPHEMERIS_TYPE": "0",
    "ELEMENT_SET_NO": "999",
    "REV_AT_EPOCH": "69907",
    "BSTAR": "0.000060723",
    "MEAN_MOTION_DOT": "0.00000248",
    "MEAN_MOTION_DDOT": "0",
    "FILE": "3935266",
    "TLE_LINE0": "0 CRYOSAT 2",
    "TLE_LINE1": "1 36508U 10013A   23168.04672504  .00000248  00000-0  60723-4 0  9991",
    "TLE_LINE2": "2 36508  92.0196  12.3647 0006314  89.0843 271.1088 14.51905250699070",
    "OBJECT_ID": "2010-013A",
    "OBJECT_NUMBER": "36508",
    "SEMIMAJOR_AXIS": "7097.570",
    "PERIOD": "99.180",
    "APOGEE": "723.916",
    "PERIGEE": "714.953",
    "DECAYED": "0"
  },
  {
    "COMMENT": "GENERATED VIA SPACETRACK.ORG API",
    "ORIGINATOR": "18 SPCS",
    "NORAD_CAT_ID": "36508",
    "OBJECT_NAME": "CRYOSAT 2",
    "OBJECT_TYPE": "PAYLOAD",
    "CLASSIFICATION_TYPE": "U",
    "INTLDES": "10013A",
    "EPOCH": "2023-06-17 12:41:59",
    "EPOCH_MICROSECONDS": "792928",
    "MEAN_MOTION": "14.51905459",
    "ECCENTRICITY": "0.0006311",
    "INCLINATION": "92.0195",
    "RA_OF_ASC_NODE": "12.481",
    "ARG_OF_PERICENTER": "88.0458",
    "MEAN_ANOMALY": "272.1472",
    "EPHEMERIS_TYPE": "0",
    "ELEMENT_SET_NO": "999",
    "REV_AT_EPOCH": "69910",
    "BSTAR": "0.000058137",
    "MEAN_MOTION_DOT": "0.00000237",
    "MEAN_MOTION_DDOT": "0",
    "FILE": "3935591",
    "TLE_LINE0": "0 CRYOSAT 2",
    "TLE_LINE1": "1 36508U 10013A   23168.52916427  .00000237  00000-0  58137-4 0  9993",
    "TLE_LINE2": "2 36508  92.0195  12.4810 0006311  88.0458 272.1472 14.51905459699103",
    "OBJECT_ID": "2010-013A",
    "OBJECT_NUMBER": "36508",
    "SEMIMAJOR_AXIS": "7097.569",
    "PERIOD": "99.180",
    "APOGEE": "723.913",
    "PERIGEE": "714.955",
    "DECAYED": "0"
  },
  {
    "COMMENT": "GENERATED VIA SPACETRACK.ORG API",
    "ORIGINATOR": "18 SPCS",
    "NORAD_CAT_ID": "36508",
    "OBJECT_NAME": "CRYOSAT 2",
    "OBJECT_TYPE": "PAYLOAD",
    "CLASSIFICATION_TYPE": "U",
    "INTLDES": "10013A",
    "EPOCH": "2023-06-17 20:58:13",
    "EPOCH_MICROSECONDS": "177632",
    "MEAN_MOTION": "14.51905641",
    "ECCENTRICITY": "0.0006311",
    "INCLINATION": "92.0195",
    "RA_OF_ASC_NODE": "12.5641",
    "ARG_OF_PERICENTER": "87.3717",
    "MEAN_ANOMALY": "272.8213",
    "EPHEMERIS_TYPE": "0",
    "ELEMENT_SET_NO": "999",
    "REV_AT_EPOCH": "69915",
    "BSTAR": "0.00005659",
    "MEAN_MOTION_DOT": "0.00000231",
    "MEAN_MOTION_DDOT": "0",
    "FILE": "3935891",
    "TLE_LINE0": "0 CRYOSAT 2",
    "TLE_LINE1": "1 36508U 10013A   23168.87376363  .00000231  00000-0  56590-4 0  9995",
    "TLE_LINE2": "2 36508  92.0195  12.5641 0006311  87.3717 272.8213 14.51905641699154",
    "OBJECT_ID": "2010-013A",
    "OBJECT_NUMBER": "36508",
    "SEMIMAJOR_AXIS": "7097.568",
    "PERIOD": "99.180",
    "APOGEE": "723.913",
    "PERIGEE": "714.954",
    "DECAYED": "0"
  },
  {
    "COMMENT": "GENERATED VIA SPACETRACK.ORG API",
    "ORIGINATOR": "18 SPCS",
    "NORAD_CAT_ID": "36508",
    "OBJECT_NAME": "CRYOSAT 2",
    "OBJECT_TYPE": "PAYLOAD",
    "CLASSIFICATION_TYPE": "U",
    "INTLDES": "10013A",
    "EPOCH": "2023-06-18 03:35:11",
    "EPOCH_MICROSECONDS": "882112",
    "MEAN_MOTION": "14.51905808",
    "ECCENTRICITY": "0.0006309",
    "INCLINATION": "92.0195",
    "RA_OF_ASC_NODE": "12.6305",
    "ARG_OF_PERICENTER": "86.8206",
    "MEAN_ANOMALY": "273.3723",
    "EPHEMERIS_TYPE": "0",
    "ELEMENT_SET_NO": "999",
    "REV_AT_EPOCH": "69923",
    "BSTAR": "0.000056005",
    "MEAN_MOTION_DOT": "0.00000229",
    "MEAN_MOTION_DDOT": "0",
    "FILE": "3936136",
    "TLE_LINE0": "0 CRYOSAT 2",
    "TLE_LINE1": "1 36508U 10013A   23169.14944308  .00000229  00000-0  56005-4 0  9994",
    "TLE_LINE2": "2 36508  92.0195  12.6305 0006309  86.8206 273.3723 14.51905808699232",
    "OBJECT_ID": "2010-013A",
    "OBJECT_NUMBER": "36508",
    "SEMIMAJOR_AXIS": "7097.568",
    "PERIOD": "99.180",
    "APOGEE": "723.911",
    "PERIGEE": "714.955",
    "DECAYED": "0"
  },
  {
    "COMMENT": "GENERATED VIA SPACETRACK.ORG API",
    "ORIGINATOR": "18 SPCS",
    "NORAD_CAT_ID": "36508",
    "OBJECT_NAME": "CRYOSAT 2",
    "OBJECT_TYPE": "PAYLOAD",
    "CLASSIFICATION_TYPE": "U",
    "INTLDES": "10013A",
    "EPOCH": "2023-06-18 11:51:25",
    "EPOCH_MICROSECONDS": "262496",
    "MEAN_MOTION": "14.5190596",
    "ECCENTRICITY": "0.0006304",
    "INCLINATION": "92.0194",
    "RA_OF_ASC_NODE": "12.7135",
    "ARG_OF_PERICENTER": "86.1089",
    "MEAN_ANOMALY": "274.0839",
    "EPHEMERIS_TYPE": "0",
    "ELEMENT_SET_NO": "999",
    "REV_AT_EPOCH": "69924",
    "BSTAR": "0.000054461",
    "MEAN_MOTION_DOT": "0.00000222",
    "MEAN_MOTION_DDOT": "0",
    "FILE": "3936420",
    "TLE_LINE0": "0 CRYOSAT 2",
    "TLE_LINE1": "1 36508U 10013A   23169.49404239  .00000222  00000-0  54461-4 0  9993",
    "TLE_LINE2": "2 36508  92.0194  12.7135 0006304  86.1089 274.0839 14.51905960699246",
    "OBJECT_ID": "2010-013A",
    "OBJECT_NUMBER": "36508",
    "SEMIMAJOR_AXIS": "7097.567",
    "PERIOD": "99.180",
    "APOGEE": "723.907",
    "PERIGEE": "714.958",
    "DECAYED": "0"
  },
  {
    "COMMENT": "GENERATED VIA SPACETRACK.ORG API",
    "ORIGINATOR": "18 SPCS",
    "NORAD_CAT_ID": "36508",
    "OBJECT_NAME": "CRYOSAT 2",
    "OBJECT_TYPE": "PAYLOAD",
    "CLASSIFICATION_TYPE": "U",
    "INTLDES": "10013A",
    "EPOCH": "2023-06-18 20:07:38",
    "EPOCH_MICROSECONDS": "636832",
    "MEAN_MOTION": "14.51906097",
    "ECCENTRICITY": "0.0006298",
    "INCLINATION": "92.0194",
    "RA_OF_ASC_NODE": "12.7966",
    "ARG_OF_PERICENTER": "85.3196",
    "MEAN_ANOMALY": "274.873",
    "EPHEMERIS_TYPE": "0",
    "ELEMENT_SET_NO": "999",
    "REV_AT_EPOCH": "69929",
    "BSTAR": "0.000052765",
    "MEAN_MOTION_DOT": "0.00000216",
    "MEAN_MOTION_DDOT": "0",
    "FILE": "3936745",
    "TLE_LINE0": "0 CRYOSAT 2",
    "TLE_LINE1": "1 36508U 10013A   23169.83864163  .00000216  00000-0  52765-4 0  9995",
    "TLE_LINE2": "2 36508  92.0194  12.7966 0006298  85.3196 274.8730 14.51906097699295",
    "OBJECT_ID": "2010-013A",
    "OBJECT_NUMBER": "36508",
    "SEMIMAJOR_AXIS": "7097.567",
    "PERIOD": "99.180",
    "APOGEE": "723.902",
    "PERIGEE": "714.962",
    "DECAYED": "0"
  }
]